[{"name": "Adams Pin", "place_name": "Mount Adams", "elevation": "12,276", "coordinates": "N46 12' 09'' W121 29' 27''", "location": "Cascade Range, Washington, USA", "instore_id": 21317842, "image_src": "https://cdn.shopify.com/s/files/1/0051/5982/products/ADAMSpn.jpg?v=1571262394"}, {"name": "Angels Landing Pin", "place_name": "Angels Landing", "elevation": "5,735", "coordinates": "N37 16' 10'' W112 56' 55''", "location": "Zion National Park, Utah, USA", "instore_id": 21317852, "image_src": "https://cdn.shopify.com/s/files/1/0051/5982/products/ALpn.jpg?v=1571262394"}, {"name": "Antero Pin", "place_name": "Mount Antero", "elevation": "14,269", "coordinates": "N38 40' 27'' W106 14' 46''", "location": "Sawatch Range, Colorado, USA", "instore_id": 1696901660723, "image_src": "https://cdn.shopify.com/s/files/1/0051/5982/products/ANTEROpn_eab2fd17-ff3d-4633-aeed-3ac824897ad5.jpg?v=1571262435"}, {"name": "Baden Powell Pin", "place_name": "Mount Baden Powell", "elevation": "9407", "coordinates": "N34 21' 31'' W117 45' 53''", "location": "Los Angeles County, California, USA", "instore_id": 284888465, "image_src": "https://cdn.shopify.com/s/files/1/0051/5982/products/BDNPWLpn.jpg?v=1571262425"}, {"name": "Badwater Basin Pin", "place_name": "Badwater Basin", "elevation": "-282", "coordinates": "N36 15' 01'' W116 49' 30''", "location": "Death Valley National Park, California, USA", "instore_id": 21317862, "image_src": "https://cdn.shopify.com/s/files/1/0051/5982/products/BADWpn1.jpg?v=1571262395"}, {"name": "Baker Pin", "place_name": "Mount Baker", "elevation": "10,781", "coordinates": "N48 46' 39'' W121 48' 43''", "location": "Washington, USA", "instore_id": 6420912837, "image_src": "https://cdn.shopify.com/s/files/1/0051/5982/products/BAKERpn.jpg?v=1571262430"}, {"name": "Baldy (San Antonio) Pin", "place_name": "Mount Baldy (San Antonio)", "elevation": "10,064", "coordinates": "N34 17' 20\" W117 38' 48\"", "location": "Los Angeles County, California, USA", "instore_id": 28412192, "image_src": "https://cdn.shopify.com/s/files/1/0051/5982/products/BLDYSApn.jpg?v=1571262411"}, {"name": "Belford Pin", "place_name": "Mount Belford", "elevation": "14,197", "coordinates": "N37 50' 22'' W108 00' 19''", "location": "Sawatch Range, Collegiate Peaks, CO, USA", "instore_id": 1696908279859, "image_src": "https://cdn.shopify.com/s/files/1/0051/5982/products/BLFpn.jpg?v=1571262435"}, {"name": "Bierstadt Pin", "place_name": "Mount Bierstadt", "elevation": "14,060", "coordinates": "N39 34' 58'' W105 40' 05''", "location": "Front Range, Colorado, USA", "instore_id": 21317882, "image_src": "https://cdn.shopify.com/s/files/1/0051/5982/products/BIEpn_f498b55e-a901-4a56-8277-5219d859f111.jpg?v=1571262395"}, {"name": "Black Mesa Pin", "place_name": "Black Mesa", "elevation": "4,973", "coordinates": "N36 59' 55\" W103 08' 00\"<null><br><span>Location:</span> Oklahoma, USA", "location": "Oklahoma, USA", "instore_id": 21317892, "image_src": "https://cdn.shopify.com/s/files/1/0051/5982/products/BLKMpn_f17d6ff1-5d03-4d3a-9e7e-fdb9a405c2b7.jpg?v=1571262395"}, {"name": "Blanca Pin", "place_name": "Blanca Peak", "elevation": "14,345", "coordinates": "N37 34' 38'' W105 29' 07''", "location": "Sangre de Cristo Range, Colorado, USA", "instore_id": 1696955236403, "image_src": "https://cdn.shopify.com/s/files/1/0051/5982/products/BLANCApn.jpg?v=1571262436"}, {"name": "Borah Peak Pin", "place_name": "Borah Peak", "elevation": "12,655", "coordinates": "N44 08' 14'' W113 46' 46''", "location": "Idaho, USA", "instore_id": 21317902, "image_src": "https://cdn.shopify.com/s/files/1/0051/5982/products/BORAHpn_408db1fd-8de7-4080-b2f5-f811a57b6c9e.jpg?v=1571262395"}, {"name": "Boundary Peak Pin", "place_name": "Boundary Peak", "elevation": "13,140", "coordinates": "N37 50' 46'' W118 21' 00''", "location": "Inyo National Forest, Nevada, USA", "instore_id": 21317922, "image_src": "https://cdn.shopify.com/s/files/1/0051/5982/products/BNpn.jpg?v=1571262395"}, {"name": "Boundary Waters Canoe Area Wilderness Pin (BWCA)", "place_name": null, "elevation": null, "coordinates": null, "location": null, "instore_id": 7139593027737, "image_src": "https://cdn.shopify.com/s/files/1/0051/5982/products/BWCAWPin2.jpg?v=1633581297"}, {"name": "Brasstown Bald Pin", "place_name": "Brasstown Bald", "elevation": "4,784", "coordinates": "N34 52' 27'' W83 48' 38''", "location": "Towns/Union Counties, Georgia, USA", "instore_id": 123269668, "image_src": "https://cdn.shopify.com/s/files/1/0051/5982/products/BRASSpn.jpg?v=1571262420"}, {"name": "Bross Pin", "place_name": "Mount Bross", "elevation": "14,172", "coordinates": "N39 20' 07'' W106 06' 25''", "location": "Ten Mile-Mosquito, Colorado, USA <span class=\"text\"><br><span>MarkerSleuth Photo Contributor:</span> This marker is located under a cairn.", "instore_id": 168575772, "image_src": "https://cdn.shopify.com/s/files/1/0051/5982/products/BROSSpn_71ca5eb2-688a-4c34-9ab4-9b0b376b2b6f.jpg?v=1571262422"}, {"name": "Capitol Peak Pin", "place_name": "Capitol Peak", "elevation": "14,130", "coordinates": "N39 09' 01'' W107 04' 57''", "location": "Elk Range, Colorado, USA", "instore_id": 1696999243827, "image_src": "https://cdn.shopify.com/s/files/1/0051/5982/products/CAPTLpn.jpg?v=1571262437"}, {"name": "Bryce Canyon Visitor Center Pin", "place_name": "Bryce Canyon", "elevation": "7894", "coordinates": "N37 38' 24'' W112 10' 12''", "location": null, "instore_id": 21317932, "image_src": "https://cdn.shopify.com/s/files/1/0051/5982/products/BRYpn2.jpg?v=1571262395"}, {"name": "Bryce Point Pin", "place_name": "Bryce Point", "elevation": "8,295", "coordinates": "N37 36' 19\" W113 09' 27\" <null><br><span>Location:</span> Bryce Canyon National Park, Utah, USA", "location": "Bryce Canyon National Park, Utah, USA", "instore_id": 21317942, "image_src": "https://cdn.shopify.com/s/files/1/0051/5982/products/BRYCEPTpn.gif?v=1571262395"}, {"name": "Cadillac Pin", "place_name": "Cadillac Mountain<br><span>Elevation:</span> 1530 ft.<br><span>Coordinates:</span> N44\u00b0 21' 10'' W068\u00b0 13' 28''", "elevation": "1530", "coordinates": "N44 21' 10'' W068 13' 28''", "location": "Acadia National Park, Maine, USA", "instore_id": 21317952, "image_src": "https://cdn.shopify.com/s/files/1/0051/5982/products/CADpn.jpg?v=1571262395"}, {"name": "Cameron Pin", "place_name": "Mount Cameron", "elevation": "14,238", "coordinates": "N39 20' 49'' W106 07' 07''", "location": null, "instore_id": 1696985350195, "image_src": "https://cdn.shopify.com/s/files/1/0051/5982/products/CAMpn.jpg?v=1571262437"}, {"name": "Cannon Pin", "place_name": "Cannon Mountain<br><span>Elevation:</span> 4,080 ft.<br><span>Coordinates:</span> N44\u00b0 09' 23'' W71\u00b0 41' 54''", "elevation": "4,080", "coordinates": "N44 09' 23'' W71 41' 54''", "location": "White Mountain Range, New Hampshire, USA", "instore_id": 124662486, "image_src": "https://cdn.shopify.com/s/files/1/0051/5982/products/CANNONpn.jpg?v=1571262420"}, {"name": "Carrigain Pin", "place_name": "Mount Carrigain", "elevation": "4,700", "coordinates": "N44 05' 37'' W71 26' 48''", "location": "Pemigewasset Range, New Hampshire, USA", "instore_id": 168859204, "image_src": "https://cdn.shopify.com/s/files/1/0051/5982/products/CARRpn.jpg?v=1571262423"}, {"name": "Cascade Pass Pin", "place_name": "Cascade Pass", "elevation": "5,392", "coordinates": null, "location": "North Cascades National Park, Washington, USA", "instore_id": 117782648, "image_src": "https://cdn.shopify.com/s/files/1/0051/5982/products/CASCADEpn.jpg?v=1571262420"}, {"name": "Castle Peak Pin", "place_name": "Castle Peak", "elevation": "14,265", "coordinates": "N39 00' 35'' W106 51' 39''", "location": "Elk Range, Colorado, USA", "instore_id": 1697012219955, "image_src": "https://cdn.shopify.com/s/files/1/0051/5982/products/CSTLPKpn.jpg?v=1571262438"}, {"name": "Challenger Point Pin", "place_name": "Challenger Point<br><span>Elevation:</span> 14,081 ft.<br><span>Coordinates:</span> N37\u00b0 58' 49'' W105\u00b0 36' 22''", "elevation": "14,081", "coordinates": "N37 58' 49'' W105 36' 22''", "location": "Sangre de Cristo Range, Colorado, USA", "instore_id": 1697027194931, "image_src": "https://cdn.shopify.com/s/files/1/0051/5982/products/CHALLGRpn.jpg?v=1571262438"}, {"name": "Cheaha Pin", "place_name": "Mount Cheaha", "elevation": "2,407", "coordinates": "N33 29' 08'' W85 48' 31''", "location": "Talladega National Forest, Alabama, USA", "instore_id": 168865716, "image_src": "https://cdn.shopify.com/s/files/1/0051/5982/products/CHEAHpn.jpg?v=1571262424"}, {"name": "Clingmans Dome Pin", "place_name": "Clingmans Dome", "elevation": "6,643", "coordinates": "N35 33' 46'' W83 29' 55''", "location": "Great Smoky Mountains National Park, USA", "instore_id": 21317972, "image_src": "https://cdn.shopify.com/s/files/1/0051/5982/products/CLNpn.jpeg?v=1571262395"}, {"name": "Clouds Rest Pin", "place_name": "Clouds Rest", "elevation": "9,926", "coordinates": "N37 46' 04'' W119 29' 18''", "location": "Yosemite National Park, California, USA", "instore_id": 78533712, "image_src": "https://cdn.shopify.com/s/files/1/0051/5982/products/CLDRSTpn.jpg?v=1571262416"}, {"name": "Columbia Peak Pin", "place_name": "Columbia Peak", "elevation": "14,073", "coordinates": "N38 54' 14'' W106 17' 49''", "location": "Sawatch Range, Colorado, USA", "instore_id": 21317982, "image_src": "https://cdn.shopify.com/s/files/1/0051/5982/products/COLpn.jpg?v=1571262395"}, {"name": "Confluence-Grand Canyon Pin", "place_name": "Confluence CO &amp; Little CO Rivers", "elevation": "2,721", "coordinates": null, "location": "Grand Canyon National Park, Arizona, USA", "instore_id": 21317992, "image_src": "https://cdn.shopify.com/s/files/1/0051/5982/products/CONpn_9ab9e686-71a6-41f8-8d53-b32e0915193c.jpg?v=1571262395"}, {"name": "Constitution Pin", "place_name": "Mount Constitution", "elevation": "2409", "coordinates": "N 48.6776047 W -122.8310165", "location": "Orcas Island, Moran State Park, Washington, USA", "instore_id": 1280808901, "image_src": "https://cdn.shopify.com/s/files/1/0051/5982/products/CONSTpn.jpg?v=1571262428"}, {"name": "Conundrum Peak Pin", "place_name": "Conundrum Peak<br><span>Elevation:</span> 14,060 ft.<br><span>Coordinates:</span> N39\u00b0 00' 52'' W106\u00b0 51' 50''", "elevation": "14,060", "coordinates": "N39 00' 52'' W106 51' 50''", "location": "Elk Range, Colorado, USA", "instore_id": 1697067892787, "image_src": "https://cdn.shopify.com/s/files/1/0051/5982/products/CONUMpn.jpg?v=1572033076"}, {"name": "Crater Lake Pin", "place_name": "Crater Lake<br><span>Coordinates:</span> N42\u00b0 55' W122\u00b0 08'", "elevation": "7,100", "coordinates": "N42 55' W122 08'", "location": "Crater Lake National Park, Oregon, USA", "instore_id": 46378482, "image_src": "https://cdn.shopify.com/s/files/1/0051/5982/products/CRTRLKpn.jpg?v=1571262413"}, {"name": "Crestone Needle Pin", "place_name": "Crestone Needle", "elevation": "14,197", "coordinates": "N37 57' 53'' W105 34' 34''", "location": "Sangre de Cristo Range, Colorado, USA", "instore_id": 1697178615859, "image_src": "https://cdn.shopify.com/s/files/1/0051/5982/products/CRESTpn.jpg?v=1571262439"}, {"name": "Crestone Peak Pin", "place_name": "Crestone Peak<br><span>Elevation:</span> 14,294 ft.<br><span>Coordinates:</span> N37\u00b0 58' 00'' W105\u00b0 35' 05''", "elevation": "14,294", "coordinates": "N37 58' 00'' W105 35' 05''", "location": "Sangre de Cristo Range, California, USA", "instore_id": 1697192869939, "image_src": "https://cdn.shopify.com/s/files/1/0051/5982/products/CRESTPKpn.jpg?v=1571262439"}, {"name": "Culebra Peak Pin", "place_name": "Culebra Peak", "elevation": "14,047", "coordinates": "N37 07' 20'' W105 11' 06''", "location": "Sangre de Cristo Range, Colorado, USA", "instore_id": 1697221279795, "image_src": "https://cdn.shopify.com/s/files/1/0051/5982/products/CULEBpn.jpg?v=1571262440"}, {"name": "Democrat Pin", "place_name": "Mount Democrat", "elevation": "14,148", "coordinates": "N39 20' 23'' W106 08' 22''", "location": "Mosquito Range, Colorado, USA <span class=\"text\"><br><span>MarkerSleuth Photo Contributor:</span> No Station Found", "instore_id": 168578934, "image_src": "https://cdn.shopify.com/s/files/1/0051/5982/products/DEMCRTpn_2ab97488-c591-4577-9f36-c35f82a3c729.jpg?v=1571262423"}, {"name": "Denali Pin (New Elevation)", "place_name": "Denali<br><span>Elevation:</span> 20,310 ft.<br><span>Coordinates:</span> N63\u00b0 04' 10'' W151\u00b0 00' 27''", "elevation": "20,310", "coordinates": "N63 04' 10'' W151 00' 27''", "location": "Denali National Park, Alaska, USA, North America", "instore_id": 1925612503091, "image_src": "https://cdn.shopify.com/s/files/1/0051/5982/products/DENALIpn.jpg?v=1571262455"}, {"name": "Devils Tower 2-pc Pin", "place_name": "Devils Tower", "elevation": "4,250", "coordinates": "N44 35' 26'' W104 43' 14''", "location": "Devils Tower National Monument, Wyoming, USA", "instore_id": 21318002, "image_src": "https://cdn.shopify.com/s/files/1/0051/5982/products/DVTpnr.jpg?v=1571262395"}, {"name": "Diablo Pin", "place_name": null, "elevation": "3849", "coordinates": "N37 52' 54\" W121 54' 51\"", "location": "MT Diablo State Park, CA", "instore_id": 712933179443, "image_src": "https://cdn.shopify.com/s/files/1/0051/5982/products/MtDBLOpn_e6f71379-aade-4ac3-ba5b-a59f442edbe0.jpg?v=1571262434"}, {"name": "Diamond Head Pin", "place_name": "Diamond Head", "elevation": "762", "coordinates": "N21 15' 35'' W157 48' 42''", "location": "Honolulu, Hawaii, USA", "instore_id": 21318012, "image_src": "https://cdn.shopify.com/s/files/1/0051/5982/products/DMNHDpn.jpg?v=1571262395"}, {"name": "El Capitan GNIS Pin", "place_name": "El Capitan", "elevation": "7,569", "coordinates": "N37 44' 03'' W119 38' 12''", "location": "Yosemite National Park, California, USA", "instore_id": 21318022, "image_src": "https://cdn.shopify.com/s/files/1/0051/5982/products/ELCAPpn.jpg?v=1571262396"}, {"name": "El Diente Pin", "place_name": "El Diente", "elevation": "14,159", "coordinates": "N37 50' 22'' W108 00' 19''", "location": "San Miguel Range, Colorado, USA", "instore_id": 1741844119603, "image_src": "https://cdn.shopify.com/s/files/1/0051/5982/products/ELDNTpn.jpg?v=1572034879"}, {"name": "Elbert Pin", "place_name": "Mount Elbert", "elevation": "14,433", "coordinates": "N39 07' 04'' W106 26' 41''", "location": "Sawatch Range, Colorado, USA", "instore_id": 21318032, "image_src": "https://cdn.shopify.com/s/files/1/0051/5982/products/ELpn.jpg?v=1571262396"}, {"name": "Ellingwood Point Pin", "place_name": "Elingwood Point", "elevation": "14,042", "coordinates": "N37 34' 57'' W105 29' 31''", "location": "Sangre de Cristo Range, Colorado, USA", "instore_id": 1697263910963, "image_src": "https://cdn.shopify.com/s/files/1/0051/5982/products/ELLINGpn.jpg?v=1571262440"}, {"name": "Eolus Pin", "place_name": "Mount Eolus", "elevation": "14,083", "coordinates": "N37 37' 22\" W107 37' 17\" <null><br><span>Location:</span> San Juan National Forest, Colorado, USA", "location": "San Juan National Forest, Colorado, USA", "instore_id": 1697278492723, "image_src": "https://cdn.shopify.com/s/files/1/0051/5982/products/EOLpn.jpg?v=1571262441"}, {"name": "Evans Pin", "place_name": "Mount Evans", "elevation": "14,264", "coordinates": "N39 35' 19'' W105 38' 34''", "location": "Front Range, Colorado, USA", "instore_id": 21318042, "image_src": "https://cdn.shopify.com/s/files/1/0051/5982/products/EVNpn.jpg?v=1571262396"}, {"name": "Rushmore Pin", "place_name": "Mount Rushmore", "elevation": "5725", "coordinates": "N43 52' 30'' W103 22' 30''", "location": "Mt. Rushmore National Park, South Dakota, USA", "instore_id": 21318542, "image_src": "https://cdn.shopify.com/s/files/1/0051/5982/products/RUSHpn.jpg?v=1571262400"}, {"name": "Four Corners  Pin", "place_name": "Four Corners", "elevation": "4,862", "coordinates": "N36 59' 56\" W109 02' 40\"<null><br><span>Location:</span> National Monument, UT, CO, AZ, NM, USA", "location": "National Monument, UT, CO, AZ, NM, USA", "instore_id": 21317832, "image_src": "https://cdn.shopify.com/s/files/1/0051/5982/products/4CRpn_cf7ab88d-c086-4156-9893-347a7468f704.jpg?v=1571262394"}, {"name": "Gannett Peak Pin", "place_name": "Gannett Peak", "elevation": "13,804", "coordinates": "N43 11' 04'' W109 39' 12''", "location": "Wyoming, USA", "instore_id": 21318082, "image_src": "https://cdn.shopify.com/s/files/1/0051/5982/products/GANNpn.jpg?v=1571262396"}, {"name": "Glacier Point Pin", "place_name": "Glacier Point", "elevation": "7,214", "coordinates": "N37 43' 51'' W119 34' 29''", "location": "Yosemite National Park, California, USA", "instore_id": 21318092, "image_src": "https://cdn.shopify.com/s/files/1/0051/5982/products/GLApn.jpg?v=1571262396"}, {"name": "Golden Spike NHS Pin", "place_name": "Golden Spike: Last Spike Site", "elevation": "4,905", "coordinates": "N41 37' 05'' W112 33' 02''", "location": "Golden Spike National Historic Site, Utah, USA", "instore_id": 21318102, "image_src": "https://cdn.shopify.com/s/files/1/0051/5982/products/GSPIKEpn.jpg?v=1571262397"}, {"name": "Grand Teton Pin", "place_name": "Grand Teton", "elevation": "13,770", "coordinates": "N43 44' 28'' W110 48' 09''", "location": "Grand Teton National Park, Wyoming, USA", "instore_id": 21318112, "image_src": "https://cdn.shopify.com/s/files/1/0051/5982/products/GTpn.jpg?v=1571262397"}, {"name": "Granite Peak Pin", "place_name": "Granite Peak", "elevation": "12,799", "coordinates": "N45 48' 03'' W109 48' 27''", "location": "Montana, USA", "instore_id": 21318122, "image_src": "https://cdn.shopify.com/s/files/1/0051/5982/products/GRTpn.jpg?v=1571262397"}, {"name": "Grays Peak Pin", "place_name": "Grays Peak", "elevation": "14,272", "coordinates": "N39 38' 02'' W105 49' 01''", "location": "Front Range, Colorado, USA", "instore_id": 21318132, "image_src": "https://cdn.shopify.com/s/files/1/0051/5982/products/GRAYpn.jpg?v=1571262397"}, {"name": "Greylock Pin", "place_name": "Mount Greylock", "elevation": "3,491", "coordinates": "N42 38' 15'' W073 10' 00''", "location": "Massachusetts, USA", "instore_id": 21318142, "image_src": "https://cdn.shopify.com/s/files/1/0051/5982/products/GRYpn.jpg?v=1571262397"}, {"name": "Haleakala Pin", "place_name": "Haleakal\u0101 Crater<br><span>Elevation:</span> 10,023 ft.<br><span>Coordinates:</span> N20\u00b0 42' 35'' W156\u00b0 15' 12''", "elevation": "10,023", "coordinates": "N20 42' 35'' W156 15' 12''", "location": "Haleakal\u0101 National Park, Maui, Hawaii, USA", "instore_id": 168862312, "image_src": "https://cdn.shopify.com/s/files/1/0051/5982/products/HALEpn.jpg?v=1571262424"}, {"name": "Half Dome GNIS Pin", "place_name": "Half Dome", "elevation": "8,842", "coordinates": "N37 44' 46'' W119 31' 55''", "location": "Yosemite National Park, California, USA", "instore_id": 21318152, "image_src": "https://cdn.shopify.com/s/files/1/0051/5982/products/HALFpn.jpg?v=1571262397"}, {"name": "Handies Peak Pin", "place_name": "Handies Peak", "elevation": null, "coordinates": "N37 54' 47'' W107 30' 14''", "location": "San Juan Range, Colorado, USA", "instore_id": 1697322926131, "image_src": "https://cdn.shopify.com/s/files/1/0051/5982/products/HANDpn.jpg?v=1571262442"}, {"name": "Harney Peak Pin", "place_name": "Harney Peak", "elevation": "7,244", "coordinates": "N43 51' 58'' W103 31' 52''", "location": "Black Hills National Forest, South Dakota, USA", "instore_id": 21318162, "image_src": "https://cdn.shopify.com/s/files/1/0051/5982/products/HARpn.jpg?v=1571262397"}, {"name": "Harvard Pin", "place_name": "Mount Harvard", "elevation": "14,420", "coordinates": "N38 55' 28'' W106 19' 12''", "location": "Sawatch Range, Colorado, USA", "instore_id": 21318172, "image_src": "https://cdn.shopify.com/s/files/1/0051/5982/products/HARVpn_072c688f-c594-4425-a72a-50d0470ee9f6.jpg?v=1571262397"}, {"name": "Hebgen Lake Earthquake Pin", "place_name": "Hebgen Lake Earthquake", "elevation": null, "coordinates": "N44\u00ba 51\u2019 10\u201d W111\u00ba 23\u2019 20\u201d", "location": "Earthquake Lake, Montana, USA", "instore_id": 5623897285, "image_src": "https://cdn.shopify.com/s/files/1/0051/5982/products/HEBGENpn.jpg?v=1571262430"}, {"name": "Holy Cross Pin", "place_name": "Holy Cross", "elevation": "14,005", "coordinates": "N39 28' 01'' W106 28' 51''", "location": "Sawatch Range, Colorado, USA", "instore_id": 21318192, "image_src": "https://cdn.shopify.com/s/files/1/0051/5982/products/HLYpn_a7af0be9-3c3a-4466-8dcf-2fbb4ad2a4ff.jpg?v=1571262397"}, {"name": "Hood Pin", "place_name": "Mount Hood", "elevation": "11,239", "coordinates": "N45 22' 25'' W121 41' 33''", "location": "Mt. Hood National Forest, Oregon, USA", "instore_id": 21318202, "image_src": "https://cdn.shopify.com/s/files/1/0051/5982/products/HOODpn.jpg?v=1571262397"}, {"name": "Hopi-Grand Canyon Pin", "place_name": "Hopi Point", "elevation": null, "coordinates": "N36\u00ba 04' 34\" W112\u00ba 09' 17\" <null><br> <span>Location:</span> Grand Canyon National Park, Arizona, USA", "location": "Grand Canyon National Park, Arizona, USA", "instore_id": 21318212, "image_src": "https://cdn.shopify.com/s/files/1/0051/5982/products/HOPIpn_6a442388-c224-4cda-a31f-404dce462e2a.jpg?v=1571262397"}, {"name": "Humboldt Peak Pin", "place_name": "Humboldt Peak", "elevation": "14,064", "coordinates": "N37 58' 34'' W105 33' 17''", "location": "Sangre de Cristo Range, Colorado, USA", "instore_id": 21318222, "image_src": "https://cdn.shopify.com/s/files/1/0051/5982/products/HUMpn_299a4d9b-e6df-4efb-8149-dea7f0cc97d8.jpg?v=1571262397"}, {"name": "Humphreys Peak Pin", "place_name": "Humphreys Peak<br><span>Elevation:</span> 12,633 ft.<br><span>Coordinates:</span> N35\u00b0 20' 47'' W111\u00b0 40' 40''", "elevation": "12,633", "coordinates": "N35 20' 47'' W111 40' 40''", "location": "San Francisco Mountains, Arizona, USA", "instore_id": 21318072, "image_src": "https://cdn.shopify.com/s/files/1/0051/5982/products/FRISCOpn.jpg?v=1571262396"}, {"name": "Huron Pin", "place_name": "Huron Peak<br><span>Elevation:</span> 14,003 ft.<br><span>Coordinates:</span> N38\u00b0 56' 44'' W106\u00b0 26' 17''", "elevation": "14,003", "coordinates": "N38 56' 44'' W106 26' 17''", "location": "Sawatch Range, California, USA", "instore_id": 1699708043315, "image_src": "https://cdn.shopify.com/s/files/1/0051/5982/products/HURONpn.jpg?v=1571262444"}, {"name": "Inspiration Point GNIS Pin", "place_name": "Inspiration Point Jenny Lake", "elevation": "7,200", "coordinates": "N43 46' 02'' W110 44' 52''", "location": "Grand Teton National Park, Wyoming, USA", "instore_id": 21318232, "image_src": "https://cdn.shopify.com/s/files/1/0051/5982/products/INSPpn.jpg?v=1571262398"}, {"name": "Jefferson (Oregon) Pin", "place_name": "Mount Jefferson", "elevation": "10,497", "coordinates": "N44 40' 27'' W121 47' 58''", "location": null, "instore_id": 6448328773, "image_src": "https://cdn.shopify.com/s/files/1/0051/5982/products/JEFF-WApn.jpg?v=1571262431"}, {"name": "Kala Patthar UNESCO Heritage Site Pin", "place_name": null, "elevation": null, "coordinates": "N27 59' 45\" E86 49' 42\"", "location": "Sagarmatha National Park, Nepal<br><span>MarkerSleuth Photo Contributor:</span> No Station Found; Original Artwork", "instore_id": 75065892, "image_src": "https://cdn.shopify.com/s/files/1/0051/5982/products/KALApn.jpg?v=1571262416"}, {"name": "Katahdin Pin", "place_name": "Mount Katahdin", "elevation": "5,267", "coordinates": "N45 54' 16'' W68 55' 22''", "location": "Baxter State Park, Maine, USA", "instore_id": 21318242, "image_src": "https://cdn.shopify.com/s/files/1/0051/5982/products/KHTpn.jpg?v=1571262398"}, {"name": "Kennesaw Pin", "place_name": "Kennesaw Mountain", "elevation": "1808", "coordinates": "N33 58' 34'' W084 34' 47''", "location": "Kennesaw Mountain National Battlefield Park, Georgia, USA", "instore_id": 208340553, "image_src": "https://cdn.shopify.com/s/files/1/0051/5982/products/KENNpn_9d3f67c8-28da-4901-bb26-f7fe954e08e6.jpg?v=1571262425"}, {"name": "Kilauea Pin", "place_name": null, "elevation": null, "coordinates": null, "location": null, "instore_id": 21318262, "image_src": "https://cdn.shopify.com/s/files/1/0051/5982/products/KILAUpn.jpg?v=1571262398"}, {"name": "KILIMANJARO Pin", "place_name": "Mount Kilimanjaro<br><span>Elevation:</span> 19,340 ft. / 5,895 meters<br><span>Coordinates:</span> S03\u00b0 04' E37\u00b0 21'", "elevation": null, "coordinates": "S03 04' E37 21'", "location": "Kilimanjaro National Park, Tanzania, Africa", "instore_id": 133057183, "image_src": "https://cdn.shopify.com/s/files/1/0051/5982/products/7KILIpn.jpg?v=1571262421"}, {"name": "Kings Peak Pin", "place_name": "Kings Peak", "elevation": "13,528", "coordinates": "N44 46' 43'' W110 22' 28''", "location": "Unita Range, Utah, USA", "instore_id": 21318272, "image_src": "https://cdn.shopify.com/s/files/1/0051/5982/products/KINGpn.jpeg?v=1571262398"}, {"name": "Kit Carson Pin", "place_name": "Kit Carson Peak", "elevation": "14,165", "coordinates": "N37 58' 47'' W105 36' 07''", "location": "Sangre de Cristo Range, Colorado, USA", "instore_id": 1741870694451, "image_src": "https://cdn.shopify.com/s/files/1/0051/5982/products/KTCRSNpn.jpg?v=1572030928"}, {"name": "Kitt Peak  Pin", "place_name": "Kitt Peak", "elevation": "6875", "coordinates": "N31 57' 50'' W111 35' 57''", "location": "Arizona, USA", "instore_id": 21318282, "image_src": "https://cdn.shopify.com/s/files/1/0051/5982/products/KITTpn.jpg?v=1571262398"}, {"name": "Lafayette Pin", "place_name": "Mount Lafayette", "elevation": "5260", "coordinates": "N44 09' 39'' W71 38' 40''", "location": "Franconia Range, New Hampshire, USA", "instore_id": 124665384, "image_src": "https://cdn.shopify.com/s/files/1/0051/5982/products/LAFAYpn.jpg?v=1571262421"}, {"name": "Langley Pin", "place_name": "Langley", "elevation": "14,042", "coordinates": "N36 31' 24'' W118 14' 20''", "location": "Sierra Nevada Range, California, USA", "instore_id": 39157882, "image_src": "https://cdn.shopify.com/s/files/1/0051/5982/products/LANGpn.jpg?v=1571262413"}, {"name": "LaPlata Peak Pin", "place_name": "LaPlata Peak", "elevation": "14,336", "coordinates": "N39 01' 46'' W106 28' 21''", "location": "Sawatch Range, Colorado, USA", "instore_id": 1699744776243, "image_src": "https://cdn.shopify.com/s/files/1/0051/5982/products/LaPLTpn.jpg?v=1571262444"}, {"name": "Lassen Pin", "place_name": "Lassen Peak", "elevation": "10,457", "coordinates": "N41 29' 16'' W121 30' 14''", "location": "Lassen Volcanic National Park, California, USA", "instore_id": 21318292, "image_src": "https://cdn.shopify.com/s/files/1/0051/5982/products/LASSpn.jpg?v=1571262398"}, {"name": "LeConte High Top Elevation Pin", "place_name": "LeConte", "elevation": "6593", "coordinates": "N35 39' 15'' W83 26' 13''", "location": "Great Smoky Mountains National Park, USA", "instore_id": 21318302, "image_src": "https://cdn.shopify.com/s/files/1/0051/5982/products/LCNTpn.jpg?v=1571262398"}, {"name": "Lincoln Pin", "place_name": "Mount Lincoln", "elevation": "14,286", "coordinates": "N39 21' 05'' W106 06' 39''", "location": "Mosquito Range, Colorado, USA", "instore_id": 21318312, "image_src": "https://cdn.shopify.com/s/files/1/0051/5982/products/LINpn_8b046f52-49f6-43e9-ab53-c9c45fd1c9f9.jpg?v=1571262398"}, {"name": "Lindsey Pin", "place_name": "Mount Lindsey", "elevation": "14,042", "coordinates": "N37 35' 05'' W105 26' 25''", "location": "Sangre de Cristo Range, Colorado, USA", "instore_id": 1699832496179, "image_src": "https://cdn.shopify.com/s/files/1/0051/5982/products/LINDSpn.jpg?v=1571262445"}, {"name": "Little Bear Peak Pin", "place_name": "Little Bear Peak", "elevation": "14037", "coordinates": "N37 34' 00'' W105 29' 48''", "location": "Sangre de Cristo Range, Colorado, USA", "instore_id": 1699908157491, "image_src": "https://cdn.shopify.com/s/files/1/0051/5982/products/LITTLBRpn.jpg?v=1571262445"}, {"name": "Logans Pass Pin", "place_name": null, "elevation": null, "coordinates": null, "location": null, "instore_id": 7374517010585, "image_src": "https://cdn.shopify.com/s/files/1/0051/5982/products/LOGANpn.jpg?v=1650665149"}, {"name": "Longs Peak Pin", "place_name": "Longs Peak", "elevation": "14,255", "coordinates": "N40 15' 17'' W105 36' 55''", "location": "Front Range, Rocky Mountain National Park, Colorado, USA", "instore_id": 21318322, "image_src": "https://cdn.shopify.com/s/files/1/0051/5982/products/LPpn.jpg?v=1571262398"}, {"name": "Machu Picchu UNESCO Heritage Site Pin", "place_name": null, "elevation": null, "coordinates": "S13 09' 47\" W72 32' 44\"", "location": null, "instore_id": 38920952, "image_src": "https://cdn.shopify.com/s/files/1/0051/5982/products/MACHUpn.jpg?v=1571262412"}, {"name": "Mammoth Mountain Pin", "place_name": "Mammoth Mountain", "elevation": null, "coordinates": null, "location": "Sierra Nevada Range, California, USA", "instore_id": 1776668966963, "image_src": "https://cdn.shopify.com/s/files/1/0051/5982/products/MAMMpn.jpg?v=1571262454"}, {"name": "Manitou Station Pin", "place_name": "Manitou Station", "elevation": "6571", "coordinates": null, "location": "Manitou Springs, Colorado, USA", "instore_id": 21318332, "image_src": "https://cdn.shopify.com/s/files/1/0051/5982/products/MANITOUpn.jpg?v=1571262398"}, {"name": "Mansfield Pin", "place_name": "Mount Mansfield", "elevation": "4393", "coordinates": "N44 32' 37'' W072 48' 53''", "location": "Vermont, USA", "instore_id": 21318342, "image_src": "https://cdn.shopify.com/s/files/1/0051/5982/products/MANSpn.jpg?v=1571262398"}, {"name": "Marcy Pin", "place_name": "Mount Marcy", "elevation": "5344", "coordinates": "N44 06' 45'' W073 55' 26''", "location": "New York, USA", "instore_id": 21318352, "image_src": "https://cdn.shopify.com/s/files/1/0051/5982/products/MARCYpn_0109030e-90eb-4306-9bc8-f47e339276df.jpg?v=1571262398"}, {"name": "Maroon Peak Pin", "place_name": "Maroon Peak", "elevation": "14,156", "coordinates": "N39 04' 15'' W106 59' 19''", "location": "Elk Range, Colorado, USA", "instore_id": 1715555696691, "image_src": "https://cdn.shopify.com/s/files/1/0051/5982/products/MAROONpn.jpg?v=1571262446"}, {"name": "Matterhorn Pin", "place_name": "Matterhorn", "elevation": null, "coordinates": "N45 58' 35\" W07 39' 30\"", "location": "Pennine Alps, Switzerland", "instore_id": 169300010, "image_src": "https://cdn.shopify.com/s/files/1/0051/5982/products/MATTHRNpn.jpg?v=1571262424"}, {"name": "Massive Pin", "place_name": "Mount Massive", "elevation": "14,421", "coordinates": "N39 11' 14'' W106 28' 29''", "location": "Sawatch Range, Colorado, USA", "instore_id": 168581818, "image_src": "https://cdn.shopify.com/s/files/1/0051/5982/products/MASSpn.jpg?v=1571262423"}, {"name": "Mauna Loa Pin", "place_name": "Mauna Loa", "elevation": "13,677", "coordinates": "N19 28' 56'' W155 36' 18''", "location": "The Island of Hawaii, Hawaii, USA", "instore_id": 21318372, "image_src": "https://cdn.shopify.com/s/files/1/0051/5982/products/MLOApn_f99e711a-ec0e-46c1-b1a2-5785ba5e2b6b.jpg?v=1571262399"}, {"name": "Maunakea Pin", "place_name": "Maunakea", "elevation": "13,796", "coordinates": "N19 49' 31'' W155 28' 08''", "location": "Hawaii, USA", "instore_id": 21318362, "image_src": "https://cdn.shopify.com/s/files/1/0051/5982/products/MAUpn2.jpg?v=1571262399"}, {"name": "McKinley (Denali) Pin Historic Elevation", "place_name": "Mount McKinley", "elevation": "20,320", "coordinates": "N63 04' 10'' W151 00' 27''", "location": "Denali National Park, Alaska, USA", "instore_id": 21318382, "image_src": "https://cdn.shopify.com/s/files/1/0051/5982/products/MCKpn.jpg?v=1571262399"}, {"name": "Meades Ranch Pin", "place_name": "Meades Ranch", "elevation": null, "coordinates": "N39 13' 26.686'' W098 32' 30.506''", "location": "Triangulation Station, Kansas, USA", "instore_id": 21318392, "image_src": "https://cdn.shopify.com/s/files/1/0051/5982/products/MEADESpn.jpg?v=1571262399"}, {"name": "Meteor Crater Pin", "place_name": "Meteor Crater", "elevation": "5723", "coordinates": "N35 01' 41'' W111 01' 23''", "location": "Arizona, USA", "instore_id": 21318402, "image_src": "https://cdn.shopify.com/s/files/1/0051/5982/products/METEORpn.jpg?v=1571262399"}, {"name": "Mid-Continent Mapping Center Pin", "place_name": "Mid-Continent Mapping Center", "elevation": "1044.181", "coordinates": "N37 57' 14.49142\" W 91 44' 42.09178<null><br>\r<span>Location:</span> Rolla, Missouri, USA", "location": "Rolla, Missouri, USA", "instore_id": 21318412, "image_src": "https://cdn.shopify.com/s/files/1/0051/5982/products/MCMCpn.jpg?v=1571262399"}, {"name": "Middle Sister Pin", "place_name": "Middle Sister", "elevation": "10,047", "coordinates": "N44 8' 54'' W121 47' 3''", "location": "Cascade Range, Oregon USA", "instore_id": 6430216709, "image_src": "https://cdn.shopify.com/s/files/1/0051/5982/products/MIDSISpn.jpg?v=1571262430"}, {"name": "Missouri Mountain Pin", "place_name": "Missouri Mountain", "elevation": "14,067", "coordinates": "N38 56' 50'' W106 22' 40''", "location": "Sawatch Range, Colorado, USA", "instore_id": 21318422, "image_src": "https://cdn.shopify.com/s/files/1/0051/5982/products/MISSpn_b70902fc-1844-48cd-a313-4b7901c58e39.jpg?v=1571262399"}, {"name": "Mitchell  Pin", "place_name": "Mount Mitchell", "elevation": "6684", "coordinates": "N35 45' 53'' W082 15' 55''", "location": "Mount Mitchell State Park, North Carolina, USA", "instore_id": 21318432, "image_src": "https://cdn.shopify.com/s/files/1/0051/5982/products/MTCpn.jpeg?v=1571262399"}, {"name": "Monadnock Pin", "place_name": "Mount Monadnock", "elevation": "3165", "coordinates": "N42 51' 40'' W072 06' 35''", "location": "Monadnock State Park, New Hampshire, USA", "instore_id": 21318442, "image_src": "https://cdn.shopify.com/s/files/1/0051/5982/products/MONADpn_ce1de17d-0a5a-4978-8059-a68d91cb27fa.jpg?v=1571262399"}, {"name": "Moran Pin", "place_name": "Mount Moran", "elevation": "12,605", "coordinates": "N43 50' 07'' W110 46' 32''", "location": "Grand Teton National Park, Wyoming, USA", "instore_id": 21318452, "image_src": "https://cdn.shopify.com/s/files/1/0051/5982/products/MORpn.jpg?v=1571262399"}, {"name": "Moro Rock Pin", "place_name": "Moro Rock<br> <span>Elevation:</span> 6725 ft.<br> <span>Coordinates:</span> N36\u00b0 32' 24'' W118\u00b0 45' 54''", "elevation": "6725", "coordinates": "N36 32' 24'' W118 45' 54''", "location": "Sequoia National Park, California, USA", "instore_id": 21318462, "image_src": "https://cdn.shopify.com/s/files/1/0051/5982/products/MOROpn.jpg?v=1571262400"}, {"name": "North Eolus Pin", "place_name": "North Eolus Peak<br><span>Elevation:</span> 14,039 ft.<br><span>Coordinates:</span> N37\u00b0 37' 18\" W107\u00b0 37' 22\" <null><br><span>Location:</span> Needle Mountains, Colorado, USA", "elevation": "14,039", "coordinates": "N37 37' 18\" W107 37' 22\" <null><br><span>Location:</span> Needle Mountains, Colorado, USA", "location": "Needle Mountains, Colorado, USA", "instore_id": 1715753549875, "image_src": "https://cdn.shopify.com/s/files/1/0051/5982/products/NoEOLUSpn.jpg?v=1571262448"}, {"name": "North Maroon Pin", "place_name": "North Maroon Peak<br><span>Elevation:</span> 14,014 ft.<br><span>Coordinates:</span> N39\u00b0 04' 34\" W106\u00b0 59' 14''", "elevation": "14,014", "coordinates": "N39 04' 34\" W106 59' 14''", "location": "Elk Range, Colorado, USA", "instore_id": 1715620118579, "image_src": "https://cdn.shopify.com/s/files/1/0051/5982/products/NMROONpn.jpg?v=1571262447"}, {"name": "North Sister Pin", "place_name": "North Sister", "elevation": "10,085", "coordinates": "N44 09' 58'' W121 46' 21''", "location": "Cascade Range, Oregon USA", "instore_id": 6430268869, "image_src": "https://cdn.shopify.com/s/files/1/0051/5982/products/NSISpn.jpg?v=1571262431"}, {"name": "Old Faithful Geyser Pin", "place_name": "Old Faithful Geyser", "elevation": "7349", "coordinates": "N44 27' 38'' W110 49' 44''", "location": "Yellowstone National Park, Wyoming, USA", "instore_id": 26756182, "image_src": "https://cdn.shopify.com/s/files/1/0051/5982/products/OLDFFLpn.jpg?v=1571262410"}, {"name": "Old Faithful Visitor Education Center Pin", "place_name": "Old Faithful Visitor Education Center", "elevation": "7357", "coordinates": "N44 27' 31'' W110 49' 45''", "location": "Yellowstone National Park, Wyoming, USA", "instore_id": 94832336, "image_src": "https://cdn.shopify.com/s/files/1/0051/5982/products/OLDVECpn.jpg?v=1571262419"}, {"name": "Old Point Loma Light House Pin", "place_name": "Old Point Loma Light House", "elevation": null, "coordinates": "N32 40' 18'' W117 14' 27''", "location": "Cabrillo National Monument San Diego, California, USA", "instore_id": 7474320645, "image_src": "https://cdn.shopify.com/s/files/1/0051/5982/products/PTLOMApn.jpg?v=1571262432"}, {"name": "Oxford Pin", "place_name": "Mount Oxford", "elevation": "14,153", "coordinates": "N38 57' 53'' W106 20' 18''", "location": "Sawatch Range, Colorado, USA", "instore_id": 21318482, "image_src": "https://cdn.shopify.com/s/files/1/0051/5982/products/OXpn_756a7dd5-d8f8-47d3-abae-066e136ac57c.jpg?v=1571262400"}, {"name": "Phantom Ranch-Grand Canyon Pin", "place_name": "Phantom Ranch", "elevation": null, "coordinates": "N36\u00ba 06' 18\" W112\u00ba 05' 40\"", "location": "Grand Canyon National Park, Arizona, USA", "instore_id": 21318492, "image_src": "https://cdn.shopify.com/s/files/1/0051/5982/products/PHANpn_8365b1b2-b561-4e40-800b-596b19bacab0.jpg?v=1571262400"}, {"name": "Pikes Peak Pin", "place_name": "Pikes Peak", "elevation": "14,110", "coordinates": "N38 50' 26'' W105 02' 37''", "location": "Front Range, Colorado, USA", "instore_id": 21318502, "image_src": "https://cdn.shopify.com/s/files/1/0051/5982/products/PPpn.jpg?v=1571262400"}, {"name": "Point of Beginning Pin", "place_name": "Point of Beginning", "elevation": null, "coordinates": null, "location": null, "instore_id": 358820905, "image_src": "https://cdn.shopify.com/s/files/1/0051/5982/products/POBpn1.jpg?v=1571262426"}, {"name": "Socorro Pin", "place_name": "Socorro Peak", "elevation": "7226", "coordinates": "N34 04' 18.2'' W106 57' 46.7''", "location": "New Mexico Institute of Mining and Technology, New Mexico, USA", "instore_id": 5561381253, "image_src": "https://cdn.shopify.com/s/files/1/0051/5982/products/SOCORpn.jpg?v=1571262429"}, {"name": "Princeton Pin", "place_name": "Mount Princeton", "elevation": "14,197", "coordinates": "N39 44' 58 W106 14' 13''", "location": "Sawatch Range, Colorado, USA", "instore_id": 21318512, "image_src": "https://cdn.shopify.com/s/files/1/0051/5982/products/PRINCpn_4603322d-6652-4948-b95f-d30f87947dc9.jpg?v=1571262400"}, {"name": "Pyramid Pin", "place_name": "Pyramid Peak", "elevation": "14,018", "coordinates": "N39 04' 17'' W106 56' 59''", "location": "Elk Range, Colorado, USA", "instore_id": 1716451082291, "image_src": "https://cdn.shopify.com/s/files/1/0051/5982/products/PYRpn.jpg?v=1571262449"}, {"name": "Quandary Peak Pin", "place_name": "Quandary Peak", "elevation": "14,265", "coordinates": "N39 23' 50'' W106 06' 21''", "location": "Ten Mile Range, Colorado, USA", "instore_id": 21318522, "image_src": "https://cdn.shopify.com/s/files/1/0051/5982/products/QUpn.jpg?v=1571262400"}, {"name": "Quarry Exhibit Hall Pin", "place_name": "Quarry Exhibit Hall", "elevation": "5178.22", "coordinates": null, "location": "Dinosaur National Monument, Utah, USA", "instore_id": 1877757853747, "image_src": "https://cdn.shopify.com/s/files/1/0051/5982/products/DINOpn.jpg?v=1571262455"}, {"name": "Rainier Pin", "place_name": null, "elevation": null, "coordinates": null, "location": null, "instore_id": 21318532, "image_src": "https://cdn.shopify.com/s/files/1/0051/5982/products/RAIpn.jpg?v=1571262400"}, {"name": "Redcloud Peak Pin", "place_name": "Redcloud Peak", "elevation": "14,034", "coordinates": "N37 56' 27'' W107 25' 17''", "location": "San Juan Range, Colorado, USA", "instore_id": 1722348732467, "image_src": "https://cdn.shopify.com/s/files/1/0051/5982/products/RDCLDpn.jpg?v=1571262449"}, {"name": "San Gorgonio Pin", "place_name": "San Gorgonio Mountain", "elevation": "11,499", "coordinates": "N34 06' 02'' W116 49' 40''", "location": "San Gorgonio Wilderness, California, USA", "instore_id": 21318552, "image_src": "https://cdn.shopify.com/s/files/1/0051/5982/products/SGORpn.jpg?v=1571262400"}, {"name": "San Jacinto Pin", "place_name": "Mount San Jacinto", "elevation": "10,804", "coordinates": "N33 48' 52'' W116 40' 42''", "location": "Mount San Jacinto State Wilderness, California, USA", "instore_id": 21318562, "image_src": "https://cdn.shopify.com/s/files/1/0051/5982/products/SJACpn.jpg?v=1571262400"}, {"name": "San Luis Pin", "place_name": "San Luis Peak", "elevation": "14,014", "coordinates": "N37 59' 13'' W106 55' 51''", "location": "San Juan Range, Colorado, USA", "instore_id": 21318572, "image_src": "https://cdn.shopify.com/s/files/1/0051/5982/products/SLUISpn.jpg?v=1571262400"}, {"name": "Shasta Pin", "place_name": "Mount Shasta", "elevation": null, "coordinates": "N41 24' 34'' W122 11' 38''", "location": "Shasta National Forest, California, USA", "instore_id": 21318582, "image_src": "https://cdn.shopify.com/s/files/1/0051/5982/products/SHASpn.jpg?v=1571262401"}, {"name": "Shavano Pin", "place_name": "Mount Shavano", "elevation": "14,229", "coordinates": "N38 37' 08'' W106 14' 22''", "location": "Sawatch Range, Colorado, USA", "instore_id": 168583242, "image_src": "https://cdn.shopify.com/s/files/1/0051/5982/products/SHAVpn.jpg?v=1571262423"}, {"name": "Sherman Pin", "place_name": "Mount Sherman", "elevation": "14,036", "coordinates": "N39 13' 30'' W106 10' 09''", "location": "Ten Mile-Mosquito, Colorado, USA", "instore_id": 168584748, "image_src": "https://cdn.shopify.com/s/files/1/0051/5982/products/SHERMANpn.jpg?v=1571262423"}, {"name": "Sneffels Pin", "place_name": "Mount Sneffels", "elevation": "14,150", "coordinates": "N38 00' 12'' W107 47' 30''", "location": "Sneffels Range, Colorado, USA", "instore_id": 168586260, "image_src": "https://cdn.shopify.com/s/files/1/0051/5982/products/SNEFFELSpn.jpg?v=1571262423"}, {"name": "Snowmass Pin", "place_name": "Snowmass Mountain", "elevation": "14,092", "coordinates": "N37 50' 21'' W107 59' 27''", "location": "Elk Range, Colorado, USA", "instore_id": 1741535543347, "image_src": "https://cdn.shopify.com/s/files/1/0051/5982/products/SNOWpn.jpg?v=1571262450"}, {"name": "South Pole 2010 Pin", "place_name": "South Pole 2010", "elevation": "9300", "coordinates": "90 South", "location": "Antarctica<br><span class=\"text\">Each January first, the position of 90 degrees South is determined and marked with a large marker of a unique design. And each year, day by day, the marker is carried away by the movement of the glacial ice cap.", "instore_id": 21318682, "image_src": "https://cdn.shopify.com/s/files/1/0051/5982/products/SP2010pn.jpg?v=1571262401"}, {"name": "South Pole 2013 Pin", "place_name": "South Pole 2013", "elevation": "9300", "coordinates": "90 South", "location": "Antarctica<br><span class=\"text\">Each January first, the position of 90 degrees South is determined and marked with a large marker of a unique design. And each year, day by day, the marker is carried away by the movement of the glacial ice cap. This year\u2019s marker shows the position of the planets as viewed from the South Pole on January 1, 2013. Seven\u00a0 planets surround the sun, the moon and the Southern Cross constellation. In the very center is a star that marks the South Pole.", "instore_id": 128488232, "image_src": "https://cdn.shopify.com/s/files/1/0051/5982/products/SP2013pn.jpg?v=1571262421"}, {"name": "South Sister Pin", "place_name": null, "elevation": null, "coordinates": "N44 06' 12\" W121 46' 09\"<br><span>Location:</span> Oregon, USA<br><span>MarkerSleuth Photo Contributor:</span> Mike West", "location": "Oregon, USA<br><span>MarkerSleuth Photo Contributor:</span> Mike West", "instore_id": 6430191173, "image_src": "https://cdn.shopify.com/s/files/1/0051/5982/products/SSISpn.jpg?v=1571262430"}, {"name": "Springer Mountain Pin", "place_name": "Springer Mountain<br><span>Elevation:</span> 3782 ft.<br><span>Coordinates:</span> N34 37' 36'' W84 11' 37''", "elevation": "3782", "coordinates": "N34 37' 36'' W84 11' 37''", "location": "Southern Terminus of the Appalachian Trail, Georgia, USA", "instore_id": 21318692, "image_src": "https://cdn.shopify.com/s/files/1/0051/5982/products/SPRNGpn.jpeg?v=1571262401"}, {"name": "St. Helens Pin", "place_name": "St. Helens", "elevation": "9677", "coordinates": "N46 12' 00'' W122 11' 21''", "location": "Mount Saint Helens National Monument, Washington, USA", "instore_id": 26757472, "image_src": "https://cdn.shopify.com/s/files/1/0051/5982/products/STHpn_54f666af-0b3a-46aa-a4e3-dcb2414c0eda.jpg?v=1571262410"}, {"name": "Sunlight Peak Pin", "place_name": "Sunlight Peak<br><span>Elevation:</span> 14,059 ft.<br><span>Coordinates:</span> N37\u00b0 37' 38'' W107\u00b0 35' 43''", "elevation": "14,059", "coordinates": "N37 37' 38'' W107 35' 43''", "location": "Needle Mountains, Colorado, USA", "instore_id": 1741572538419, "image_src": "https://cdn.shopify.com/s/files/1/0051/5982/products/SNLTpn.jpg?v=1571262451"}, {"name": "Sunshine Peak Pin", "place_name": "Sunshine Peak", "elevation": "14,001", "coordinates": "N37 55' 22'' W107 25' 30''", "location": "San Juan Range, California, USA", "instore_id": 1741585547315, "image_src": "https://cdn.shopify.com/s/files/1/0051/5982/products/SUNSHNpn.jpg?v=1571262451"}, {"name": "Tabequache Peak Pin", "place_name": "Tabequache Peak", "elevation": "14,155", "coordinates": "N38 37' 32'' W106 15' 01''", "location": "Sawatch Range, Colorado, USA", "instore_id": 21318702, "image_src": "https://cdn.shopify.com/s/files/1/0051/5982/products/TABpn.jpg?v=1571262401"}, {"name": "Tamalpais Pin", "place_name": "Mount Tamalpais", "elevation": "2571", "coordinates": "N37 55' 45'' W122 34' 34''", "location": "Mount Tamalpais State Park, California, USA", "instore_id": 21318712, "image_src": "https://cdn.shopify.com/s/files/1/0051/5982/products/TAMLpn.jpg?v=1571262402"}, {"name": "Taum Sauk Pin", "place_name": "Taum Sauk Mountain<br><span>Elevation:</span> 1772 ft.<br><span>Coordinates:</span> N37\u00b0 34' 13'' W90\u00b0 43' 40''", "elevation": "1772", "coordinates": "N37 34' 13'' W90 43' 40''", "location": "Saint Francois Range, Missouri, USA", "instore_id": 168867442, "image_src": "https://cdn.shopify.com/s/files/1/0051/5982/products/TAUMpn.jpg?v=1571262424"}, {"name": "Telescope Peak Pin", "place_name": "Telescope Peak", "elevation": "11,049", "coordinates": "N36 10' 11'' W117 05' 16''", "location": "Death Valley National Monument, California, USA", "instore_id": 21318722, "image_src": "https://cdn.shopify.com/s/files/1/0051/5982/products/TELpn_b1688f79-84ee-46b7-ab61-acf90b9c6bf9.jpg?v=1571262402"}, {"name": "Torreys Peak Pin", "place_name": "Torreys Peak", "elevation": "14,267", "coordinates": "N39 38' 34'' W105 49' 15''", "location": "Front Range, Colorado, USA", "instore_id": 21318742, "image_src": "https://cdn.shopify.com/s/files/1/0051/5982/products/TORpn_3a5378a7-5ef5-4ce9-ab51-4867eb055b99.jpg?v=1571262402"}, {"name": "Uncompahgre Pin", "place_name": "Uncompahgre Peak", "elevation": "14,309", "coordinates": "N38 04' 18'' W107 27' 41''", "location": "San Juan Range, Colorado, USA", "instore_id": 21318752, "image_src": "https://cdn.shopify.com/s/files/1/0051/5982/products/UNCpn_269164a8-6452-4c93-a618-83dbf46da7fc.jpg?v=1571262402"}, {"name": "Washburn Pin", "place_name": "Mount Washburn<br><span>Elevation:</span> 10,243 ft. / 6962 meters<br><span>Coordinates:</span> N44\u00b0 47' 52\" W110\u00b0 26' 02\"", "elevation": null, "coordinates": "N44 47' 52\" W110 26' 02\"", "location": "Yellowstone National Park, Wyoming, USA<br><span>MarkerSleuth Photo Contributor:</span> Harry Hamill, 2005", "instore_id": 47607702, "image_src": "https://cdn.shopify.com/s/files/1/0051/5982/products/WSHBRNpn.jpg?v=1571262415"}, {"name": "Washington Monument Pin", "place_name": "Washington Monument", "elevation": "555", "coordinates": "N38 53' 22.08377'' W77 02' 06.86378''", "location": "District of Columbia, USA", "instore_id": 21318762, "image_src": "https://cdn.shopify.com/s/files/1/0051/5982/products/WSHMONpn.jpg?v=1571262402"}, {"name": "Washington Pin", "place_name": "Mount Washington", "elevation": "6288", "coordinates": "N44 16' 14'' W71 18' 17''", "location": "New Hampshire, USA", "instore_id": 21318772, "image_src": "https://cdn.shopify.com/s/files/1/0051/5982/products/WApn.jpeg?v=1571262402"}, {"name": "Wetterhorn Pin", "place_name": "Wetterhorn Peak<br><span>Elevation:</span> 14,015 ft.<br><span>Coordinates:</span> N38\u00b0 03' 38'' W107\u00b0 30' 37''", "elevation": "14,015", "coordinates": "N38 03' 38'' W107 30' 37''", "location": "San Juan Range, Colorado, USA", "instore_id": 1741675364403, "image_src": "https://cdn.shopify.com/s/files/1/0051/5982/products/WETTHRNpn.jpg?v=1571262452"}, {"name": "Wheeler Peak (Nevada) Pin", "place_name": "Wheeler Peak", "elevation": "13,063", "coordinates": "N38 59' 09'' W114 18' 50''", "location": "Nevada, USA", "instore_id": 155506787, "image_src": "https://cdn.shopify.com/s/files/1/0051/5982/products/WHL-NVpn.jpg?v=1571262422"}, {"name": "Wheeler Peak (New Mexico) Pin", "place_name": "Wheeler Peak", "elevation": "13,161", "coordinates": "N36 33' 24'' W105 24' 59''", "location": "New Mexico, USA", "instore_id": 21318782, "image_src": "https://cdn.shopify.com/s/files/1/0051/5982/products/WHLpn.jpg?v=1571262402"}, {"name": "White Mountain Pin", "place_name": null, "elevation": null, "coordinates": null, "location": null, "instore_id": 21318792, "image_src": "https://cdn.shopify.com/s/files/1/0051/5982/products/WHTMTNpn.jpg?v=1571262402"}, {"name": "Whitney Pin", "place_name": "Mount Whitney", "elevation": "14,494", "coordinates": "N36 34' 38'' W118 17' 33''", "location": "Inyo National Forest, California, USA", "instore_id": 21318802, "image_src": "https://cdn.shopify.com/s/files/1/0051/5982/products/WHpn.jpg?v=1571262402"}, {"name": "Wilson Peak Pin", "place_name": "Wilson Peak", "elevation": "14017", "coordinates": "N37 51' 37'' W107 59' 03''", "location": "San Juan Range, Colorado, USA", "instore_id": 1741734576179, "image_src": "https://cdn.shopify.com/s/files/1/0051/5982/products/WILSPKpn.jpg?v=1571262453"}, {"name": "Wilson Pin (CO)", "place_name": "Mount Wilson", "elevation": "14,246", "coordinates": "N37 50' 21'' W107 59' 27''", "location": "San Juan Range, Colorado, USA", "instore_id": 1741705609267, "image_src": "https://cdn.shopify.com/s/files/1/0051/5982/products/WILSONpn.jpg?v=1571262452"}, {"name": "Windom Pin", "place_name": "Windom Peak<br><span>Elevation:</span> 14,082 ft.<br><span>Coordinates:</span> 37\u00b0 37' 17'' N 107\u00b0 35' 29'' W", "elevation": "14,082", "coordinates": "37 37' 17'' N 107 35' 29'' W", "location": "San Juan Range, Colorado, USA", "instore_id": 1741748174899, "image_src": "https://cdn.shopify.com/s/files/1/0051/5982/products/WINDpn.jpg?v=1572030195"}, {"name": "Yale Pin", "place_name": "Mount Yale", "elevation": "14,196", "coordinates": "N38 50' 39'' W106 14' 31''", "location": "Sawatch Range, Colorado, USA", "instore_id": 21318812, "image_src": "https://cdn.shopify.com/s/files/1/0051/5982/products/YALEpn_f431b3f6-821f-4bc4-a86f-50e8f7fde0b0.jpg?v=1572027504"}, {"name": "Zion Canyon Visitor Center Pin", "place_name": "Zion Canyon Visitors Center<br><span>Elevation:</span> 3,923 ft.<br><span>Location:</span> Zion National Park, Utah, USA", "elevation": "3,923", "coordinates": null, "location": "Zion National Park, Utah, USA", "instore_id": 94832702, "image_src": "https://cdn.shopify.com/s/files/1/0051/5982/products/ZVTCpn.jpg?v=1571262419"}]